STARLINK-31876          
1 59938U 24106S   26067.11935757  .00005441  00000+0  20708-3 0  9999
2 59938  43.0018 341.3059 0000717 275.3180  84.7590 15.27583006100290
LUR-1                   
1 60506U 24149AQ  26068.79566301  .00009121  00000+0  32985-3 0  9998
2 60506  97.3790 148.4255 0002777 309.1571  50.9421 15.28658648 86785
